[{"OBJECT_NAME":"SITRO-AIS 8 (ANOKHIN)","OBJECT_ID":"2023-091AD","EPOCH":"2026-03-09T23:44:40.058592","MEAN_MOTION":15.29359179,"ECCENTRICITY":0.0012509,"INCLINATION":97.5169,"RA_OF_ASC_NODE":133.2823,"ARG_OF_PERICENTER":92.0171,"MEAN_ANOMALY":268.2501,"EPHEMERIS_TYPE":0,"CLASSIFICATION_TYPE":"U","NORAD_CAT_ID":57193,"ELEMENT_SET_NO":999,"REV_AT_EPOCH":14927,"BSTAR":0.00064982524,"MEAN_MOTION_DOT":0.00018494,"MEAN_MOTION_DDOT":0},{"OBJECT_NAME":"STARLINK-35756","OBJECT_ID":"2025-303N","EPOCH":"2026-03-09T00:46:39.265824","MEAN_MOTION":15.27573218,"ECCENTRICITY":0.00012467,"INCLINATION":42.9985,"RA_OF_ASC_NODE":314.508,"ARG_OF_PERICENTER":282.7814,"MEAN_ANOMALY":77.2899,"EPHEMERIS_TYPE":0,"CLASSIFICATION_TYPE":"U","NORAD_CAT_ID":67175,"ELEMENT_SET_NO":999,"REV_AT_EPOCH":1263,"BSTAR":0.0014360744,"MEAN_MOTION_DOT":0.00039459,"MEAN_MOTION_DDOT":0}]
